COMMENT,ORIGINATOR,NORAD_CAT_ID,OBJECT_NAME,OBJECT_TYPE,CLASSIFICATION_TYPE,INTLDES,EPOCH,EPOCH_MICROSECONDS,MEAN_MOTION,ECCENTRICITY,INCLINATION,RA_OF_ASC_NODE,ARG_OF_PERICENTER,MEAN_ANOMALY,EPHEMERIS_TYPE,ELEMENT_SET_NO,REV_AT_EPOCH,BSTAR,MEAN_MOTION_DOT,MEAN_MOTION_DDOT,FILE,TLE_LINE0,TLE_LINE1,TLE_LINE2,OBJECT_ID,OBJECT_NUMBER,SEMIMAJOR_AXIS,PERIOD,APOGEE,PERIGEE,DECAYED
"GENERATED VIA SPACETRACK.ORG API","18 SPCS","55102","SPACEBEE-157","PAYLOAD","U","23001CX","2023-12-22 16:53:55","198176","15.31119696","0.0012679","97.4504","56.3622","63.6793","296.5748","0","999","5384","0.001389","0.00041962","0","4142803","0 SPACEBEE-157","1 55102U 23001CX  23356.70411109  .00041962  00000-0  13890-2 0  9996","2 55102  97.4504  56.3622 0012679  63.6793 296.5748 15.31119696 53840","2023-001CX","55102","6850.607","94.049","481.158","463.787","0"
"GENERATED VIA SPACETRACK.ORG API","18 SPCS","55102","SPACEBEE-157","PAYLOAD","U","23001CX","2023-12-23 10:09:06","275520","15.31174797","0.0012677","97.4502","57.0844","61.3479","298.9035","0","999","5395","0.0012597","0.00038094","0","4143387","0 SPACEBEE-157","1 55102U 23001CX  23357.42298930  .00038094  00000-0  12597-2 0  9996","2 55102  97.4502  57.0844 0012677  61.3479 298.9035 15.31174797 53956","2023-001CX","55102","6850.443","94.045","480.992","463.624","0"
"GENERATED VIA SPACETRACK.ORG API","18 SPCS","55102","SPACEBEE-157","PAYLOAD","U","23001CX","2023-12-23 16:25:31","500768","15.31200012","0.0012619","97.4501","57.3467","60.1183","300.131","0","999","5399","0.0013676","0.00041413","0","4143662","0 SPACEBEE-157","1 55102U 23001CX  23357.68439237  .00041413  00000-0  13676-2 0  9999","2 55102  97.4501  57.3467 0012619  60.1183 300.1310 15.31200012 53990","2023-001CX","55102","6850.368","94.044","480.877","463.588","0"
"GENERATED VIA SPACETRACK.ORG API","18 SPCS","55102","SPACEBEE-157","PAYLOAD","U","23001CX","2023-12-24 03:24:14","958720","15.31237361","0.0012605","97.45","57.8063","58.7055","301.5419","0","999","5406","0.0014317","0.00043419","0","4143847","0 SPACEBEE-157","1 55102U 23001CX  23358.14183980  .00043419  00000-0  14317-2 0  9993","2 55102  97.4500  57.8063 0012605  58.7055 301.5419 15.31237361 54063","2023-001CX","55102","6850.256","94.042","480.756","463.487","0"
"GENERATED VIA SPACETRACK.ORG API","18 SPCS","55102","SPACEBEE-157","PAYLOAD","U","23001CX","2023-12-24 03:24:14","958720","15.31237361","0.0012605","97.45","57.8063","58.7055","301.5419","0","999","5406","0.0014317","0.00043419","0","4144212","0 SPACEBEE-157","1 55102U 23001CX  23358.14183980  .00043419  00000-0  14317-2 0  9993","2 55102  97.4500  57.8063 0012605  58.7055 301.5419 15.31237361 54063","2023-001CX","55102","6850.256","94.042","480.756","463.487","0"
"GENERATED VIA SPACETRACK.ORG API","18 SPCS","55102","SPACEBEE-157","PAYLOAD","U","23001CX","2023-12-25 02:55:44","649984","15.31320693","0.0012608","97.4495","58.7906","54.426","305.8154","0","999","5421","0.0014094","0.0004285","0","4145093","0 SPACEBEE-157","1 55102U 23001CX  23359.12204456  .00042850  00000-0  14094-2 0  9994","2 55102  97.4495  58.7906 0012608  54.4260 305.8154 15.31320693 54217","2023-001CX","55102","6850.008","94.036","480.509","463.236","0"
"GENERATED VIA SPACETRACK.ORG API","18 SPCS","55102","SPACEBEE-157","PAYLOAD","U","23001CX","2023-12-25 17:02:36","152160","15.3137236","0.0012573","97.4495","59.3816","53.1595","307.0797","0","999","5430","0.0013854","0.00042182","0","4145236","0 SPACEBEE-157","1 55102U 23001CX  23359.71014065  .00042182  00000-0  13854-2 0  9995","2 55102  97.4495  59.3816 0012573  53.1595 307.0797 15.31372360 54307","2023-001CX","55102","6849.854","94.033","480.331","463.107","0"
"GENERATED VIA SPACETRACK.ORG API","18 SPCS","55102","SPACEBEE-157","PAYLOAD","U","23001CX","2023-12-25 17:02:36","152160","15.3137236","0.0012573","97.4495","59.3816","53.1595","307.0797","0","999","5430","0.0013854","0.00042182","0","4145360","0 SPACEBEE-157","1 55102U 23001CX  23359.71014065  .00042182  00000-0  13854-2 0  9995","2 55102  97.4495  59.3816 0012573  53.1595 307.0797 15.31372360 54307","2023-001CX","55102","6849.854","94.033","480.331","463.107","0"
"GENERATED VIA SPACETRACK.ORG API","18 SPCS","55102","SPACEBEE-157","PAYLOAD","U","23001CX","2023-12-26 04:01:15","213216","15.31405964","0.0012603","97.4493","59.8411","51.8317","308.4057","0","999","5437","0.0012965","0.00039498","0","4145944","0 SPACEBEE-157","1 55102U 23001CX  23360.16753719  .00039498  00000-0  12965-2 0  9990","2 55102  97.4493  59.8411 0012603  51.8317 308.4057 15.31405964 54370","2023-001CX","55102","6849.754","94.031","480.251","462.986","0"
"GENERATED VIA SPACETRACK.ORG API","18 SPCS","55102","SPACEBEE-157","PAYLOAD","U","23001CX","2023-12-27 03:32:35","689920","15.31481402","0.0012494","97.449","60.8255","49.1945","311.0378","0","999","5452","0.0012363","0.00037739","0","4146410","0 SPACEBEE-157","1 55102U 23001CX  23361.14763530  .00037739  00000-0  12363-2 0  9999","2 55102  97.4490  60.8255 0012494  49.1945 311.0378 15.31481402 54524","2023-001CX","55102","6849.529","94.027","479.952","462.836","0"
"GENERATED VIA SPACETRACK.ORG API","18 SPCS","55102","SPACEBEE-157","PAYLOAD","U","23001CX","2023-12-27 11:23:01","629024","15.3150464","0.0012475","97.4487","61.154","48.1081","312.1222","0","999","5457","0.0012116","0.00037006","0","4146803","0 SPACEBEE-157","1 55102U 23001CX  23361.47432441  .00037006  00000-0  12116-2 0  9992","2 55102  97.4487  61.1540 0012475  48.1081 312.1222 15.31504640 54575","2023-001CX","55102","6849.459","94.025","479.869","462.780","0"
"GENERATED VIA SPACETRACK.ORG API","18 SPCS","55102","SPACEBEE-157","PAYLOAD","U","23001CX","2023-12-28 09:20:11","882688","15.31569479","0.00124","97.4483","62.0729","45.0492","315.1753","0","999","5471","0.0011148","0.00034098","0","4147674","0 SPACEBEE-157","1 55102U 23001CX  23362.38902642  .00034098  00000-0  11148-2 0  9990","2 55102  97.4483  62.0729 0012400  45.0492 315.1753 15.31569479 54719","2023-001CX","55102","6849.266","94.021","479.624","462.638","0"
"GENERATED VIA SPACETRACK.ORG API","18 SPCS","55102","SPACEBEE-157","PAYLOAD","U","23001CX","2023-12-28 17:10:36","204384","15.31591651","0.0012398","97.4482","62.4011","44.0052","316.2174","0","999","5476","0.0010836","0.0003316","0","4147852","0 SPACEBEE-157","1 55102U 23001CX  23362.71569681  .00033160  00000-0  10836-2 0  9991","2 55102  97.4482  62.4011 0012398  44.0052 316.2174 15.31591651 54764","2023-001CX","55102","6849.200","94.020","479.557","462.573","0"
"GENERATED VIA SPACETRACK.ORG API","18 SPCS","55102","SPACEBEE-157","PAYLOAD","U","23001CX","2023-12-29 02:35:04","866144","15.31616381","0.0012427","97.4483","62.7952","42.394","317.8259","0","999","5482","0.0010314","0.00031577","0","4148460","0 SPACEBEE-157","1 55102U 23001CX  23363.10769521  .00031577  00000-0  10314-2 0  9991","2 55102  97.4483  62.7952 0012427  42.3940 317.8259 15.31616381 54828","2023-001CX","55102","6849.126","94.018","479.503","462.480","0"
"GENERATED VIA SPACETRACK.ORG API","18 SPCS","55102","SPACEBEE-157","PAYLOAD","U","23001CX","2023-12-29 15:07:42","186432","15.3165182","0.0012378","97.4481","63.3203","40.9429","319.2739","0","999","5490","0.0010435","0.00031985","0","4148761","0 SPACEBEE-157","1 55102U 23001CX  23363.63034938  .00031985  00000-0  10435-2 0  9993","2 55102  97.4481  63.3203 0012378  40.9429 319.2739 15.31651820 54908","2023-001CX","55102","6849.021","94.016","479.363","462.408","0"
"GENERATED VIA SPACETRACK.ORG API","18 SPCS","55102","SPACEBEE-157","PAYLOAD","U","23001CX","2023-12-30 03:40:18","558048","15.31683591","0.0012345","97.4477","63.8453","39.169","321.0442","0","999","5498","0.0010271","0.0003151","0","4148957","0 SPACEBEE-157","1 55102U 23001CX  23364.15299257  .00031510  00000-0  10271-2 0  9990","2 55102  97.4477  63.8453 0012345  39.1690 321.0442 15.31683591 54989","2023-001CX","55102","6848.926","94.014","479.246","462.336","0"
"GENERATED VIA SPACETRACK.ORG API","18 SPCS","55102","SPACEBEE-157","PAYLOAD","U","23001CX","2023-12-30 03:40:18","558048","15.31683591","0.0012345","97.4477","63.8453","39.169","321.0442","0","999","5498","0.0010271","0.0003151","0","4149332","0 SPACEBEE-157","1 55102U 23001CX  23364.15299257  .00031510  00000-0  10271-2 0  9990","2 55102  97.4477  63.8453 0012345  39.1690 321.0442 15.31683591 54989","2023-001CX","55102","6848.926","94.014","479.246","462.336","0"
"GENERATED VIA SPACETRACK.ORG API","18 SPCS","55102","SPACEBEE-157","PAYLOAD","U","23001CX","2023-12-31 17:18:02","173536","15.31769681","0.0012245","97.4477","65.4207","33.5902","326.6113","0","999","5522","0.00084801","0.00026052","0","4150271","0 SPACEBEE-157","1 55102U 23001CX  23365.72085849  .00026052  00000-0  84801-3 0  9990","2 55102  97.4477  65.4207 0012245  33.5902 326.6113 15.31769681 55226","2023-001CX","55102","6848.669","94.009","478.920","462.148","0"
"GENERATED VIA SPACETRACK.ORG API","18 SPCS","55102","SPACEBEE-157","PAYLOAD","U","23001CX","2023-12-31 17:18:02","173536","15.31769681","0.0012245","97.4477","65.4207","33.5902","326.6113","0","999","5522","0.00084801","0.00026052","0","4150400","0 SPACEBEE-157","1 55102U 23001CX  23365.72085849  .00026052  00000-0  84801-3 0  9990","2 55102  97.4477  65.4207 0012245  33.5902 326.6113 15.31769681 55226","2023-001CX","55102","6848.669","94.009","478.920","462.148","0"
"GENERATED VIA SPACETRACK.ORG API","18 SPCS","55102","SPACEBEE-157","PAYLOAD","U","23001CX","2024-01-01 02:42:26","738208","15.31794939","0.0012263","97.4478","65.8149","32.1576","328.0411","0","999","5528","0.00087995","0.00027062","0","4150923","0 SPACEBEE-157","1 55102U 23001CX  24001.11280947  .00027062  00000-0  87995-3 0  9996","2 55102  97.4478  65.8149 0012263  32.1576 328.0411 15.31794939 55285","2023-001CX","55102","6848.594","94.007","478.857","462.061","0"
